COSMOS 1892             
1 18421U 87088A   21228.47368953  .00000554  00000-0  25718-4 0  9998
2 18421  82.4991 212.7142 0015761  35.4242 324.8035 15.17755862849003
SL-14 R/B               
1 18749U 88001B   21228.36074583  .00000069  00000-0  54760-5 0  9999
2 18749  82.5163 319.4328 0018199 342.5865  83.7984 14.83269642794854
COSMOS 1933             
1 18958U 88020A   21228.57401381  .00000491  00000-0  33476-4 0  9994
2 18958  82.5270  75.0091 0012402 138.2137 222.0039 15.03970264798978
SL-3 R/B                
1 19046U 88032B   21228.52473101 -.00000286  00000-0 -16611-4 0  9996
2 19046  97.3857 236.3007 0036352 196.5268 163.4776 15.02970334800802
SL-16 R/B               
1 19120U 88039B   21228.54863887 -.00000183  00000-0 -64410-4 0  9998
2 19120  71.0170 350.2688 0021515   9.4940 350.6587 14.19224829721964
COSMOS 1953             
1 19210U 88050A   21228.44230082  .00000988  00000-0  65058-4 0  9995
2 19210  82.5194 357.1918 0014185 105.2279 255.0518 15.06344350785639
SL-8 R/B                
1 19257U 88053B   21228.52280510  .00000037  00000-0  21194-4 0  9997
2 19257  74.0491 299.3617 0020192 176.4951 285.9022 14.37528247737081
COSMOS 1975             
1 19573U 88093A   21228.52754101  .00000328  00000-0  20853-4 0  9998
2 19573  82.5217 312.3476 0014914 149.4316 210.7784 15.05242276767402
SL-14 R/B               
1 19574U 88093B   21228.55719407  .00000077  00000-0  63486-5 0  9993
2 19574  82.5344 162.5266 0022595 137.1252  35.8491 14.83380511753881
SL-16 R/B               
1 19650U 88102B   21228.53081001 -.00000213  00000-0 -83973-4 0  9995
2 19650  70.9997  56.0524 0013528  18.2292 341.9313 14.15809809691048
INTERCOSMOS 24          
1 20261U 89080A   21228.57801339 -.00000155  00000-0 -52304-4 0  9998
2 20261  82.6021 105.1655 1202247 186.7650 171.5857 12.56211664457370
SL-14 R/B               
1 20262U 89080C   21228.30928546  .00000109  00000-0  26051-4 0  9997
2 20262  82.5961 161.7993 1237809  28.4563 337.8755 12.48977342452027
DELTA 2 R/B(1)          
1 20303U 89085B   21228.39285196  .00003492  00000-0  10710-3 0  9996
2 20303  35.6418 216.9605 0089184 359.3222   0.7375 15.29620202733657
DELTA 1 R/B             
1 20323U 89089B   21228.50313532  .00000016  00000-0  13377-4 0  9993
2 20323  97.1214 313.4634 0070941 335.1900  24.5891 14.48412721654392
ARIANE 40 R/B           
1 20443U 90005H   21228.41159000  .00000014  00000-0  18986-4 0  9993
2 20443  98.5248 294.2332 0011072 151.1137 209.0665 14.38138726653191
DELTA 2 R/B(1)          
1 20453U 90008B   21228.49957961  .00001605  00000-0  89061-4 0  9996
2 20453  35.6251 267.8261 0277014 256.1609 100.8142 14.86747560674461
COSMOS 2058             
1 20465U 90010A   21228.44580165  .00000245  00000-0  18288-4 0  9997
2 20465  82.4874 224.3129 0014677 202.7675 157.2899 14.98252581691955
SL-14 R/B               
1 20466U 90010B   21228.53722966  .00000079  00000-0  71090-5 0  9991
2 20466  82.5029  28.9425 0021110  25.0898 335.1336 14.81433362681669
SL-14 R/B               
1 20511U 90018B   21228.56027140  .00000067  00000-0  56703-5 0  9996
2 20511  82.5259 337.2074 0017995 159.0691 211.5838 14.80087700675999
HST                     
1 20580U 90037B   21228.46584845  .00000535  00000-0  21343-4 0  9993
2 20580  28.4709  27.9771 0002689 353.4543  41.1543 15.09705169520077
SL-16 R/B               
1 20625U 90046B   21228.32673706 -.00000146  00000-0 -51155-4 0  9997
2 20625  70.9974 196.3938 0015947 310.5337  49.4396 14.14667051612953
COSMOS 2084             
1 20663U 90055A   21228.32322673  .00000115  00000-0  28861-4 0  9995
2 20663  62.7933 189.3655 0079236  15.1596 345.1845 14.92284767686752
SL-6 R/B(2)             
1 20666U 90055D   21228.37206644  .00000070  00000-0  24265-4 0  9996
2 20666  62.7846 104.5523 0105652  41.5053 319.4002 14.92538477688711
SL-8 R/B                
1 20775U 90078B   21228.52540773  .00002529  00000-0  12230-3 0  9992
2 20775  82.9240 235.6346 0564797 316.3414  39.4368 14.36237034566718
SL-8 R/B                
1 21088U 91006B   21228.54913837  .00000030  00000-0  14745-4 0  9998
2 21088  82.9454 329.1657 0023006  24.4433 346.7512 13.77175464534721
OKEAN-3                 
1 21397U 91039A   21228.48729285  .00000208  00000-0  17382-4 0  9999
2 21397  82.5231 132.6359 0017493 182.0139 178.1014 14.93138865615666
COSMOS 2151             
1 21422U 91042A   21228.53079242  .00000204  00000-0  17482-4 0  9996
2 21422  82.4980 238.1918 0012605 250.6413 109.3444 14.92282569614207
SL-14 R/B               
1 21423U 91042B   21228.57512911  .00000062  00000-0  52529-5 0  9990
2 21423  82.4967 339.5657 0016367 309.7492  50.2278 14.79836931606530
ERS-1                   
1 21574U 91050A   21228.48362779  .00000031  00000-0  24841-4 0  9992
2 21574  98.6519 189.3763 0034105 103.0236 257.4761 14.37809268576192
ARIANE 40 R/B           
1 21610U 91050F   21228.43905194 -.00000002  00000-0  12778-4 0  9997
2 21610  98.4199 298.2861 0004334  72.8984 301.2848 14.40959448578903
INTERCOSMOS 25          
1 21819U 91086A   21228.45791021  .00000439  00000-0  80296-4 0  9994
2 21819  82.5782 231.5853 1517223  86.2442 291.0157 12.05275281295485
SL-8 R/B                
1 21876U 92008B   21228.57222459 -.00000028  00000-0 -45076-4 0  9992
2 21876  82.9235  66.4450 0036043 106.4457 307.4691 13.75683047480324
SL-8 R/B                
1 21938U 92020B   21228.47591873  .00000011  00000-0 -44564-5 0  9996
2 21938  82.9318 311.0182 0027844 267.4351 102.8329 13.75292339472096
COSMOS 2219             
1 22219U 92076A   21228.55495427  .00000302  00000-0  18480-3 0  9995
2 22219  71.0576 259.6672 0019635 228.9218 131.0209 14.13662655482882
SL-16 R/B               
1 22220U 92076B   21228.36914006 -.00000090  00000-0 -21065-4 0  9995
2 22220  70.9997  97.1049 0010899 119.6421  53.1369 14.16471374485846
COSMOS 2221             
1 22236U 92080A   21228.55332024  .00000185  00000-0  17358-4 0  9995
2 22236  82.5055  61.9326 0016466 355.9534   4.1547 14.88084331532489
SL-16 R/B               
1 22285U 92093B   21228.50025108 -.00000009  00000-0  19675-4 0  9990
2 22285  71.0189 260.7960 0005693 309.1395  50.9221 14.15060315477429
COSMOS 2228             
1 22286U 92094A   21228.50996795  .00000211  00000-0  19951-4 0  9992
2 22286  82.5207  18.7154 0022571 108.0962 252.2717 14.88309273527662
SL-16 R/B               
1 22566U 93016B   21228.41022885 -.00000149  00000-0 -52354-4 0  9994
2 22566  71.0084 113.7228 0011594 328.3279  31.7145 14.14978325466440
COSMOS 2242             
1 22626U 93024A   21228.52987517  .00000212  00000-0  20234-4 0  9995
2 22626  82.5201  47.0022 0020363 108.0117 252.3322 14.88159479532055
SL-16 R/B               
1 22803U 93059B   21228.56224155  .00000007  00000-0  27498-4 0  9997
2 22803  70.9892 283.3761 0019012 233.1659 126.7722 14.16838939443510
ARIANE 40 R/B           
1 22830U 93061H   21228.42382793 -.00000029  00000-0  59582-5 0  9993
2 22830  98.7091 286.1673 0011547 150.8900 209.2929 14.31487869455621
COSMOS 2278             
1 23087U 94023A   21228.53622052 -.00000253  00000-0 -10876-3 0  9995
2 23087  71.0539  59.1419 0007282  38.5880 321.5762 14.13836012409274
SL-16 R/B               
1 23088U 94023B   21228.56957138 -.00000289  00000-0 -12516-3 0  9997
2 23088  71.0021 328.8264 0005577 293.8741  66.1796 14.14693030410433
SL-16 R/B               
1 23343U 94074B   21228.18385862  .00000010  00000-0  86849-5 0  9996
2 23343  97.9413 281.8908 0006050 212.0180 214.5855 14.76894366441318
SL-16 R/B               
1 23405U 94077B   21228.48983136 -.00000034  00000-0  73893-5 0  9991
2 23405  70.9802 256.7570 0003321 217.3934 142.6958 14.15239233380472
ERS-2                   
1 23560U 95021A   21228.53961500  .00000923  00000-0  41698-4 0  9993
2 23560  98.5424  87.0143 0003920 144.4633 215.6863 15.24112601406848
ARIANE 40+ R/B          
1 23561U 95021B   21228.37306914  .00000008  00000-0  17469-4 0  9991
2 23561  98.6700 278.7427 0008072  76.6596 293.8238 14.38039951379649
SL-16 R/B               
1 23705U 95058B   21228.33563778  .00000284  00000-0  17057-3 0  9998
2 23705  71.0214  77.4870 0011325 147.2797 212.9030 14.15150476332083
SL-16 R/B               
1 24298U 96051B   21228.56800893 -.00000171  00000-0 -66069-4 0  9992
2 24298  70.8260  94.1441 0013239  81.7548 278.5073 14.12426298286382
ORBVIEW 2 (SEASTAR)     
1 24883U 97037A   21228.31172264  .00000057  00000-0  36735-4 0  9992
2 24883  98.6484 346.3299 0001275 305.3266  54.7799 14.33627873269587
SL-16 R/B               
1 25400U 98043G   21228.44723693 -.00000019  00000-0  10461-4 0  9995
2 25400  98.6408 163.4164 0009981 170.4955 189.6415 14.25480477201561
SL-16 R/B               
1 25407U 98045B   21228.51763835 -.00000201  00000-0 -77796-4 0  9992
2 25407  71.0105  84.2591 0006159  30.4880 329.6600 14.15839140191246
ISS (ZARYA)             
1 25544U 98067A   21228.68543478  .00001135  00000-0  28810-4 0  9993
2 25544  51.6442  43.5427 0001278 311.6396 126.6259 15.48907428297979
CZ-4B R/B               
1 25732U 99025C   21228.56820341 -.00000037  00000-0  38153-5 0  9994
2 25732  98.8983 265.1466 0038387  78.7011  37.9588 14.17697567152055
OKEAN-O                 
1 25860U 99039A   21228.56404136  .00000035  00000-0  12562-4 0  9993
2 25860  98.1794 260.1232 0000998  71.1787 288.9530 14.76752751188258
SL-16 R/B               
1 25861U 99039B   21228.59056045  .00000012  00000-0  91222-5 0  9995
2 25861  98.2033 245.1218 0014576 229.3432 242.8434 14.78655943190447
DELTA 2 R/B             
1 25876U 99041E   21228.53685902  .00000052  00000-0  50039-4 0  9992
2 25876  51.7640  72.0273 0531711 143.9424 219.8622 14.04602809128363
HELIOS 1B               
1 25977U 99064A   21228.49593064  .00000033  00000-0  11213-4 0  9991
2 25977  98.3205  45.3893 0002426  73.2992 286.8487 14.82574031438099
